CSS (TIANHE)            
1 48274U 21035A   24143.66809836  .00055491  00000+0  54549-3 0  9999
2 48274  41.4680 238.8896 0002496  38.3357 321.7661 15.65132510175103
